{
  "type": "FeatureCollection",
  "features": [
    {
      "type": "Feature",
      "properties": {
        "norad_id": 27954,
        "name": "GALAXY 13 (HORIZONS-1)",
        "group": "intelsat",
        "lat": 0.13451426351099108,
        "lon": 93.71312776509862,
        "alt_km": 35794.29319825746,
        "timestamp": "2025-12-11T10:53:15.553006+00:00",
        "meta_object_name": "GALAXY 13 (HORIZONS-1)",
        "meta_object_id": "2003-044A",
        "meta_epoch": "2025-12-11T04:14:15.566784",
        "meta_mean_motion": 1.00270843,
        "meta_eccentricity": 0.0002035,
        "meta_inclination": 0.9315,
        "meta_ra_of_asc_node": 86.49,
        "meta_arg_of_pericenter": 165.3304,
        "meta_mean_anomaly": 101.8836,
        "meta_ephemeris_type": 0,
        "meta_classification_type": "U",
        "meta_norad_cat_id": 27954,
        "meta_element_set_no": 999,
        "meta_rev_at_epoch": 4468,
        "meta_bstar": 0,
        "meta_mean_motion_dot": 1.39e-06,
        "meta_mean_motion_ddot": 0,
        "tle_line1": "1 27954U 03044A   25345.17656906  .00000139  00000+0  00000+0 0  9998",
        "tle_line2": "2 27954   0.9315  86.4900 0002035 165.3304 101.8836  1.00270843 44680"
      },
      "geometry": {
        "type": "Point",
        "coordinates": [
          93.71312776509862,
          0.13451426351099108
        ]
      }
    },
    {
      "type": "Feature",
      "properties": {
        "norad_id": 28358,
        "name": "INTELSAT 10-02",
        "group": "intelsat",
        "lat": -0.013858213817185449,
        "lon": -117.27002917067881,
        "alt_km": 35783.94958869213,
        "timestamp": "2025-12-11T10:53:15.553019+00:00",
        "meta_object_name": "INTELSAT 10-02",
        "meta_object_id": "2004-022A",
        "meta_epoch": "2025-12-11T03:14:06.327744",
        "meta_mean_motion": 1.00278861,
        "meta_eccentricity": 0.0002196,
        "meta_inclination": 0.0236,
        "meta_ra_of_asc_node": 64.8116,
        "meta_arg_of_pericenter": 267.1758,
        "meta_mean_anomaly": 155.6608,
        "meta_ephemeris_type": 0,
        "meta_classification_type": "U",
        "meta_norad_cat_id": 28358,
        "meta_element_set_no": 999,
        "meta_rev_at_epoch": 7867,
        "meta_bstar": 0,
        "meta_mean_motion_dot": -4e-08,
        "meta_mean_motion_ddot": 0,
        "tle_line1": "1 28358U 04022A   25345.13479546 -.00000004  00000+0  00000+0 0  9995",
        "tle_line2": "2 28358   0.0236  64.8116 0002196 267.1758 155.6608  1.00278861 78671"
      },
      "geometry": {
        "type": "Point",
        "coordinates": [
          -117.27002917067881,
          -0.013858213817185449
        ]
      }
    },
    {
      "type": "Feature",
      "properties": {
        "norad_id": 28626,
        "name": "XM-3 (RHYTHM)",
        "group": "intelsat",
        "lat": -0.15788840936978324,
        "lon": 4.161418093285018,
        "alt_km": 36153.98841152521,
        "timestamp": "2025-12-11T10:53:15.553031+00:00",
        "meta_object_name": "XM-3 (RHYTHM)",
        "meta_object_id": "2005-008A",
        "meta_epoch": "2025-12-10T23:37:38.582976",
        "meta_mean_motion": 0.98953167,
        "meta_eccentricity": 0.0001457,
        "meta_inclination": 0.1703,
        "meta_ra_of_asc_node": 81.3447,
        "meta_arg_of_pericenter": 267.2649,
        "meta_mean_anomaly": 208.4123,
        "meta_ephemeris_type": 0,
        "meta_classification_type": "U",
        "meta_norad_cat_id": 28626,
        "meta_element_set_no": 999,
        "meta_rev_at_epoch": 4073,
        "meta_bstar": 0,
        "meta_mean_motion_dot": -2.03e-06,
        "meta_mean_motion_ddot": 0,
        "tle_line1": "1 28626U 05008A   25344.98447434 -.00000203  00000+0  00000+0 0  9992",
        "tle_line2": "2 28626   0.1703  81.3447 0001457 267.2649 208.4123  0.98953167 40739"
      },
      "geometry": {
        "type": "Point",
        "coordinates": [
          4.161418093285018,
          -0.15788840936978324
        ]
      }
    },
    {
      "type": "Feature",
      "properties": {
        "norad_id": 28659,
        "name": "DIRECTV 8",
        "group": "intelsat",
        "lat": 0.01885457351449542,
        "lon": 124.66265142768133,
        "alt_km": 35796.08620880611,
        "timestamp": "2025-12-11T10:53:15.553044+00:00",
        "meta_object_name": "DIRECTV 8",
        "meta_object_id": "2005-019A",
        "meta_epoch": "2025-12-11T00:57:40.452192",
        "meta_mean_motion": 1.00272438,
        "meta_eccentricity": 0.0003121,
        "meta_inclination": 0.012,
        "meta_ra_of_asc_node": 43.9684,
        "meta_arg_of_pericenter": 221.3481,
        "meta_mean_anomaly": 70.068,
        "meta_ephemeris_type": 0,
        "meta_classification_type": "U",
        "meta_norad_cat_id": 28659,
        "meta_element_set_no": 999,
        "meta_rev_at_epoch": 7518,
        "meta_bstar": 0,
        "meta_mean_motion_dot": 6e-08,
        "meta_mean_motion_ddot": 0,
        "tle_line1": "1 28659U 05019A   25345.04005153  .00000006  00000+0  00000+0 0  9996",
        "tle_line2": "2 28659   0.0120  43.9684 0003121 221.3481  70.0680  1.00272438 75186"
      },
      "geometry": {
        "type": "Point",
        "coordinates": [
          124.66265142768133,
          0.01885457351449542
        ]
      }
    },
    {
      "type": "Feature",
      "properties": {
        "norad_id": 28702,
        "name": "GALAXY 28 (G-28)",
        "group": "intelsat",
        "lat": 2.7054587642931014,
        "lon": 154.990319540022,
        "alt_km": 35789.74032883228,
        "timestamp": "2025-12-11T10:53:15.553056+00:00",
        "meta_object_name": "GALAXY 28 (G-28)",
        "meta_object_id": "2005-022A",
        "meta_epoch": "2025-12-11T04:52:38.652960",
        "meta_mean_motion": 1.00270733,
        "meta_eccentricity": 0.0002716,
        "meta_inclination": 2.8148,
        "meta_ra_of_asc_node": 81.2995,
        "meta_arg_of_pericenter": 182.5228,
        "meta_mean_anomaly": 160.8173,
        "meta_ephemeris_type": 0,
        "meta_classification_type": "U",
        "meta_norad_cat_id": 28702,
        "meta_element_set_no": 999,
        "meta_rev_at_epoch": 5008,
        "meta_bstar": 0,
        "meta_mean_motion_dot": -1.81e-06,
        "meta_mean_motion_ddot": 0,
        "tle_line1": "1 28702U 05022A   25345.20322515 -.00000181  00000+0  00000+0 0  9996",
        "tle_line2": "2 28702   2.8148  81.2995 0002716 182.5228 160.8173  1.00270733 50084"
      },
      "geometry": {
        "type": "Point",
        "coordinates": [
          154.990319540022,
          2.7054587642931014
        ]
      }
    },
    {
      "type": "Feature",
      "properties": {
        "norad_id": 29236,
        "name": "GALAXY 16 (G-16)",
        "group": "intelsat",
        "lat": 0.0183516715717784,
        "lon": 144.68863730435373,
        "alt_km": 35790.278850681614,
        "timestamp": "2025-12-11T10:53:15.553068+00:00",
        "meta_object_name": "GALAXY 16 (G-16)",
        "meta_object_id": "2006-023A",
        "meta_epoch": "2025-12-11T05:00:38.584224",
        "meta_mean_motion": 1.00272313,
        "meta_eccentricity": 0.0002693,
        "meta_inclination": 0.0366,
        "meta_ra_of_asc_node": 150.4834,
        "meta_arg_of_pericenter": 106.5735,
        "meta_mean_anomaly": 159.2686,
        "meta_ephemeris_type": 0,
        "meta_classification_type": "U",
        "meta_norad_cat_id": 29236,
        "meta_element_set_no": 999,
        "meta_rev_at_epoch": 7108,
        "meta_bstar": 0,
        "meta_mean_motion_dot": -1.21e-06,
        "meta_mean_motion_ddot": 0,
        "tle_line1": "1 29236U 06023A   25345.20877991 -.00000121  00000+0  00000+0 0  9998",
        "tle_line2": "2 29236   0.0366 150.4834 0002693 106.5735 159.2686  1.00272313 71083"
      },
      "geometry": {
        "type": "Point",
        "coordinates": [
          144.68863730435373,
          0.0183516715717784
        ]
      }
    },
    {
      "type": "Feature",
      "properties": {
        "norad_id": 29494,
        "name": "DIRECTV 9S",
        "group": "intelsat",
        "lat": 1.6712876660933849,
        "lon": 142.46950626331434,
        "alt_km": 35792.42825916254,
        "timestamp": "2025-12-11T10:53:15.553095+00:00",
        "meta_object_name": "DIRECTV 9S",
        "meta_object_id": "2006-043A",
        "meta_epoch": "2025-12-11T05:00:38.584224",
        "meta_mean_motion": 1.00271766,
        "meta_eccentricity": 0.0003074,
        "meta_inclination": 1.9365,
        "meta_ra_of_asc_node": 83.2249,
        "meta_arg_of_pericenter": 179.5337,
        "meta_mean_anomaly": 151.3624,
        "meta_ephemeris_type": 0,
        "meta_classification_type": "U",
        "meta_norad_cat_id": 29494,
        "meta_element_set_no": 999,
        "meta_rev_at_epoch": 4949,
        "meta_bstar": 0,
        "meta_mean_motion_dot": -1.07e-06,
        "meta_mean_motion_ddot": 0,
        "tle_line1": "1 29494U 06043A   25345.20877991 -.00000107  00000+0  00000+0 0  9990",
        "tle_line2": "2 29494   1.9365  83.2249 0003074 179.5337 151.3624  1.00271766 49499"
      },
      "geometry": {
        "type": "Point",
        "coordinates": [
          142.46950626331434,
          1.6712876660933849
        ]
      }
    }
  ]
}